start=new Date('2022-09-08T00:00:00.000Z').valueOf();
sats=[{"FILE":"3563022","TLE_LINE1":"1 46070U 20055AV  22250.84711566  .00000060  00000-0  22894-4 0  9993","MEAN_ANOMALY":"263.1099","REF_FRAME":"TEME","EPOCH":"2022-09-07T20:19:50.793024","CENTER_NAME":"EARTH","MEAN_ELEMENT_THEORY":"SGP4","INCLINATION":"53.0549","OBJECT_ID":"2020-055AV","BSTAR":"0.00002289400000","OBJECT_TYPE":"PAYLOAD","ELEMENT_SET_NO":"999","COUNTRY_CODE":"US","APOAPSIS":"548.096","SITE":"AFETR","PERIOD":"95.593","MEAN_MOTION_DDOT":"0.0000000000000","PERIAPSIS":"546.412","NORAD_CAT_ID":"46070","CLASSIFICATION_TYPE":"U","GP_ID":"212007392","MEAN_MOTION_DOT":"0.00000060","LAUNCH_DATE":"2020-08-07","TLE_LINE2":"2 46070  53.0549  77.5726 0001216  97.0029 263.1099 15.06386771116569","DECAY_DATE":null,"RCS_SIZE":"LARGE","TIME_SYSTEM":"UTC","REV_AT_EPOCH":"11656","ECCENTRICITY":"0.00012160","MEAN_MOTION":"15.06386771","SEMIMAJOR_AXIS":"6925.389","RA_OF_ASC_NODE":"77.5726","OBJECT_NAME":"STARLINK-1536","EPHEMERIS_TYPE":"0","ARG_OF_PERICENTER":"97.0029"},{"TLE_LINE1":"1 46071U 20055AW  22250.79919467 -.00001958  00000-0 -11261-3 0  9992","FILE":"3562385","MEAN_ELEMENT_THEORY":"SGP4","CENTER_NAME":"EARTH","EPOCH":"2022-09-07T19:10:50.419488","REF_FRAME":"TEME","MEAN_ANOMALY":"280.3828","BSTAR":"-0.00011261000000","OBJECT_ID":"2020-055AW","INCLINATION":"53.0547","OBJECT_TYPE":"PAYLOAD","NORAD_CAT_ID":"46071","PERIAPSIS":"546.238","MEAN_MOTION_DDOT":"0.0000000000000","PERIOD":"95.593","SITE":"AFETR","COUNTRY_CODE":"US","APOAPSIS":"548.258","ELEMENT_SET_NO":"999","RCS_SIZE":"LARGE","TLE_LINE2":"2 46071  53.0547  77.7763 0001459  79.7326 280.3828 15.06388763116011","DECAY_DATE":null,"LAUNCH_DATE":"2020-08-07","GP_ID":"211972322","MEAN_MOTION_DOT":"-0.00001958","CLASSIFICATION_TYPE":"U","OBJECT_NAME":"STARLINK-1538","SEMIMAJOR_AXIS":"6925.383","RA_OF_ASC_NODE":"77.7763","ECCENTRICITY":"0.00014590","MEAN_MOTION":"15.06388763","REV_AT_EPOCH":"11601","TIME_SYSTEM":"UTC","ARG_OF_PERICENTER":"79.7326","EPHEMERIS_TYPE":"0"},{"MEAN_MOTION_DDOT":"0.0000000000000","NORAD_CAT_ID":"46072","PERIAPSIS":"546.157","ELEMENT_SET_NO":"999","COUNTRY_CODE":"US","APOAPSIS":"548.327","SITE":"AFETR","PERIOD":"95.593","RCS_SIZE":"LARGE","TLE_LINE2":"2 46072  53.0555  77.9785 0001567  95.9188 264.1980 15.06390770116530","DECAY_DATE":null,"LAUNCH_DATE":"2020-08-07","GP_ID":"212006890","MEAN_MOTION_DOT":"-0.00000433","CLASSIFICATION_TYPE":"U","RA_OF_ASC_NODE":"77.9785","SEMIMAJOR_AXIS":"6925.377","OBJECT_NAME":"STARLINK-1539","MEAN_MOTION":"15.06390770","ECCENTRICITY":"0.00015670","REV_AT_EPOCH":"11653","TIME_SYSTEM":"UTC","ARG_OF_PERICENTER":"95.9188","EPHEMERIS_TYPE":"0","TLE_LINE1":"1 46072U 20055AX  22250.75771322 -.00000433  00000-0 -10172-4 0  9993","FILE":"3563022","MEAN_ELEMENT_THEORY":"SGP4","CENTER_NAME":"EARTH","EPOCH":"2022-09-07T18:11:06.422208","REF_FRAME":"TEME","MEAN_ANOMALY":"264.1980","BSTAR":"-0.00001017200000","INCLINATION":"53.0555","OBJECT_ID":"2020-055AX","OBJECT_TYPE":"PAYLOAD"},{"MEAN_ELEMENT_THEORY":"SGP4","CENTER_NAME":"EARTH","EPOCH":"2022-09-07T16:58:08.772672","REF_FRAME":"TEME","MEAN_ANOMALY":"284.2011","TLE_LINE1":"1 46073U 20055AY  22250.70704598 -.00000217  00000-0  43579-5 0  9997","FILE":"3563022","OBJECT_TYPE":"PAYLOAD","BSTAR":"0.00000435790000","INCLINATION":"53.0543","OBJECT_ID":"2020-055AY","TLE_LINE2":"2 46073  53.0543  78.1999 0001434  75.9137 284.2011 15.06393639116538","DECAY_DATE":null,"RCS_SIZE":"LARGE","LAUNCH_DATE":"2020-08-07","GP_ID":"212007143","MEAN_MOTION_DOT":"-0.00000217","CLASSIFICATION_TYPE":"U","MEAN_MOTION_DDOT":"0.0000000000000","NORAD_CAT_ID":"46073","PERIAPSIS":"546.240","APOAPSIS":"548.226","COUNTRY_CODE":"US","ELEMENT_SET_NO":"999","SITE":"AFETR","PERIOD":"95.593","ARG_OF_PERICENTER":"75.9137","EPHEMERIS_TYPE":"0","RA_OF_ASC_NODE":"78.1999","SEMIMAJOR_AXIS":"6925.368","OBJECT_NAME":"STARLINK-1542","MEAN_MOTION":"15.06393639","ECCENTRICITY":"0.00014340","REV_AT_EPOCH":"11653","TIME_SYSTEM":"UTC"},{"GP_ID":"212007890","MEAN_MOTION_DOT":"-0.00000531","CLASSIFICATION_TYPE":"U","DECAY_DATE":null,"TLE_LINE2":"2 46074  53.0550  77.9551 0001401  76.1783 283.9362 15.06378458116539","RCS_SIZE":"LARGE","LAUNCH_DATE":"2020-08-07","APOAPSIS":"548.250","COUNTRY_CODE":"US","ELEMENT_SET_NO":"999","SITE":"AFETR","PERIOD":"95.594","MEAN_MOTION_DDOT":"0.0000000000000","NORAD_CAT_ID":"46074","PERIAPSIS":"546.309","EPHEMERIS_TYPE":"0","ARG_OF_PERICENTER":"76.1783","ECCENTRICITY":"0.00014010","MEAN_MOTION":"15.06378458","REV_AT_EPOCH":"11653","TIME_SYSTEM":"UTC","SEMIMAJOR_AXIS":"6925.415","RA_OF_ASC_NODE":"77.9551","OBJECT_NAME":"STARLINK-1549","REF_FRAME":"TEME","MEAN_ANOMALY":"283.9362","MEAN_ELEMENT_THEORY":"SGP4","EPOCH":"2022-09-07T18:12:28.854720","CENTER_NAME":"EARTH","TLE_LINE1":"1 46074U 20055AZ  22250.75866730 -.00000531  00000-0 -16773-4 0  9995","FILE":"3563022","OBJECT_TYPE":"PAYLOAD","INCLINATION":"53.0550","OBJECT_ID":"2020-055AZ","BSTAR":"-0.00001677300000"},{"OBJECT_ID":"2020-055BA","INCLINATION":"53.0561","BSTAR":"0.00002139600000","OBJECT_TYPE":"PAYLOAD","TLE_LINE1":"1 46075U 20055BA  22250.71810851  .00000037  00000-0  21396-4 0  9991","FILE":"3563022","REF_FRAME":"TEME","MEAN_ANOMALY":"280.7537","MEAN_ELEMENT_THEORY":"SGP4","EPOCH":"2022-09-07T17:14:04.575264","CENTER_NAME":"EARTH","ECCENTRICITY":"0.00014570","MEAN_MOTION":"15.06389493","TIME_SYSTEM":"UTC","REV_AT_EPOCH":"11653","OBJECT_NAME":"STARLINK-1551","SEMIMAJOR_AXIS":"6925.381","RA_OF_ASC_NODE":"78.1353","EPHEMERIS_TYPE":"0","ARG_OF_PERICENTER":"79.3616","SITE":"AFETR","PERIOD":"95.593","COUNTRY_CODE":"US","ELEMENT_SET_NO":"999","APOAPSIS":"548.255","NORAD_CAT_ID":"46075","PERIAPSIS":"546.237","MEAN_MOTION_DDOT":"0.0000000000000","GP_ID":"212006142","MEAN_MOTION_DOT":"0.00000037","CLASSIFICATION_TYPE":"U","RCS_SIZE":"LARGE","TLE_LINE2":"2 46075  53.0561  78.1353 0001457  79.3616 280.7537 15.06389493116536","DECAY_DATE":null,"LAUNCH_DATE":"2020-08-07"},{"EPHEMERIS_TYPE":"0","ARG_OF_PERICENTER":"68.2962","TIME_SYSTEM":"UTC","REV_AT_EPOCH":"11653","MEAN_MOTION":"15.06381114","ECCENTRICITY":"0.00016080","RA_OF_ASC_NODE":"77.7432","SEMIMAJOR_AXIS":"6925.406","OBJECT_NAME":"STARLINK-1552","CLASSIFICATION_TYPE":"U","MEAN_MOTION_DOT":"-0.00001235","GP_ID":"212006392","LAUNCH_DATE":"2020-08-07","TLE_LINE2":"2 46076  53.0555  77.7432 0001608  68.2962 291.8198 15.06381114116530","RCS_SIZE":"LARGE","DECAY_DATE":null,"APOAPSIS":"548.385","COUNTRY_CODE":"US","ELEMENT_SET_NO":"999","SITE":"AFETR","PERIOD":"95.593","MEAN_MOTION_DDOT":"0.0000000000000","NORAD_CAT_ID":"46076","PERIAPSIS":"546.158","OBJECT_TYPE":"PAYLOAD","INCLINATION":"53.0555","OBJECT_ID":"2020-055BB","BSTAR":"-0.00006405200000","MEAN_ANOMALY":"291.8198","REF_FRAME":"TEME","CENTER_NAME":"EARTH","EPOCH":"2022-09-07T19:26:47.421312","MEAN_ELEMENT_THEORY":"SGP4","FILE":"3563022","TLE_LINE1":"1 46076U 20055BB  22250.81027108 -.00001235  00000-0 -64052-4 0  9997"},{"BSTAR":"0.00022206000000","OBJECT_ID":"2020-055BC","INCLINATION":"53.0539","OBJECT_TYPE":"PAYLOAD","FILE":"3562386","TLE_LINE1":"1 46077U 20055BC  22250.72547658  .00003027  00000-0  22206-3 0  9998","EPOCH":"2022-09-07T17:24:41.176512","CENTER_NAME":"EARTH","MEAN_ELEMENT_THEORY":"SGP4","MEAN_ANOMALY":"279.2038","REF_FRAME":"TEME","OBJECT_NAME":"STARLINK-1559","SEMIMAJOR_AXIS":"6925.361","RA_OF_ASC_NODE":"78.1190","TIME_SYSTEM":"UTC","REV_AT_EPOCH":"11600","MEAN_MOTION":"15.06395806","ECCENTRICITY":"0.00014200","ARG_OF_PERICENTER":"80.9111","EPHEMERIS_TYPE":"0","NORAD_CAT_ID":"46077","PERIAPSIS":"546.243","MEAN_MOTION_DDOT":"0.0000000000000","SITE":"AFETR","PERIOD":"95.592","COUNTRY_CODE":"US","ELEMENT_SET_NO":"999","APOAPSIS":"548.210","LAUNCH_DATE":"2020-08-07","TLE_LINE2":"2 46077  53.0539  78.1190 0001420  80.9111 279.2038 15.06395806116006","DECAY_DATE":null,"RCS_SIZE":"LARGE","CLASSIFICATION_TYPE":"U","MEAN_MOTION_DOT":"0.00003027","GP_ID":"211972240"},{"BSTAR":"-0.00000967040000","OBJECT_ID":"2020-055BD","INCLINATION":"53.0552","OBJECT_TYPE":"PAYLOAD","TLE_LINE1":"1 46078U 20055BD  22250.76972196 -.00000425  00000-0 -96704-5 0  9999","FILE":"3563022","MEAN_ELEMENT_THEORY":"SGP4","EPOCH":"2022-09-07T18:28:23.977344","CENTER_NAME":"EARTH","REF_FRAME":"TEME","MEAN_ANOMALY":"261.3597","OBJECT_NAME":"STARLINK-1563","SEMIMAJOR_AXIS":"6925.404","RA_OF_ASC_NODE":"77.9157","ECCENTRICITY":"0.00016480","MEAN_MOTION":"15.06381807","REV_AT_EPOCH":"11651","TIME_SYSTEM":"UTC","ARG_OF_PERICENTER":"98.7579","EPHEMERIS_TYPE":"0","NORAD_CAT_ID":"46078","PERIAPSIS":"546.128","MEAN_MOTION_DDOT":"0.0000000000000","SITE":"AFETR","PERIOD":"95.593","COUNTRY_CODE":"US","ELEMENT_SET_NO":"999","APOAPSIS":"548.411","DECAY_DATE":null,"TLE_LINE2":"2 46078  53.0552  77.9157 0001648  98.7579 261.3597 15.06381807116513","RCS_SIZE":"LARGE","LAUNCH_DATE":"2020-08-07","MEAN_MOTION_DOT":"-0.00000425","GP_ID":"212007393","CLASSIFICATION_TYPE":"U"},{"OBJECT_NAME":"STARLINK-1566","SEMIMAJOR_AXIS":"6925.378","RA_OF_ASC_NODE":"77.9464","ECCENTRICITY":"0.00013480","MEAN_MOTION":"15.06390495","TIME_SYSTEM":"UTC","REV_AT_EPOCH":"11654","ARG_OF_PERICENTER":"91.7222","EPHEMERIS_TYPE":"0","PERIAPSIS":"546.309","NORAD_CAT_ID":"46079","MEAN_MOTION_DDOT":"0.0000000000000","SITE":"AFETR","PERIOD":"95.593","COUNTRY_CODE":"US","APOAPSIS":"548.176","ELEMENT_SET_NO":"999","DECAY_DATE":null,"TLE_LINE2":"2 46079  53.0552  77.9464 0001348  91.7222 268.3922 15.06390495116545","RCS_SIZE":"LARGE","LAUNCH_DATE":"2020-08-07","MEAN_MOTION_DOT":"0.00000948","GP_ID":"212006641","CLASSIFICATION_TYPE":"U","BSTAR":"0.00008251600000","OBJECT_ID":"2020-055BE","INCLINATION":"53.0552","OBJECT_TYPE":"PAYLOAD","TLE_LINE1":"1 46079U 20055BE  22250.76233285  .00000948  00000-0  82516-4 0  9992","FILE":"3563022","MEAN_ELEMENT_THEORY":"SGP4","CENTER_NAME":"EARTH","EPOCH":"2022-09-07T18:17:45.558240","REF_FRAME":"TEME","MEAN_ANOMALY":"268.3922"}];
